{
  "type": "FeatureCollection",
  "features": [
    {
      "type": "Feature",
      "properties": {
        "norad_id": 24876,
        "name": "GPS BIIR-2  (PRN 13)",
        "group": "gnss",
        "lat": -55.553176272807804,
        "lon": 25.18395170591577,
        "alt_km": 20388.782854113633,
        "timestamp": "2025-12-10T14:53:37.337769+00:00",
        "meta_object_name": "GPS BIIR-2  (PRN 13)",
        "meta_object_id": "1997-035A",
        "meta_epoch": "2025-12-09T17:47:19.154688",
        "meta_mean_motion": 2.00563565,
        "meta_eccentricity": 0.00967483,
        "meta_inclination": 55.8939,
        "meta_ra_of_asc_node": 105.9862,
        "meta_arg_of_pericenter": 57.0132,
        "meta_mean_anomaly": 303.8899,
        "meta_ephemeris_type": 0,
        "meta_classification_type": "U",
        "meta_norad_cat_id": 24876,
        "meta_element_set_no": 999,
        "meta_rev_at_epoch": 20815,
        "meta_bstar": 0,
        "meta_mean_motion_dot": 2.2e-07,
        "meta_mean_motion_ddot": 0,
        "tle_line1": "1 24876U 97035A   25343.74119392  .00000022  00000+0  00000+0 0  9996",
        "tle_line2": "2 24876  55.8939 105.9862 0096748  57.0132 303.8899  2.00563565208159"
      },
      "geometry": {
        "type": "Point",
        "coordinates": [
          25.18395170591577,
          -55.553176272807804
        ]
      }
    },
    {
      "type": "Feature",
      "properties": {
        "norad_id": 26360,
        "name": "GPS BIIR-4  (PRN 20)",
        "group": "gnss",
        "lat": 6.614223000110622,
        "lon": 31.5883282801012,
        "alt_km": 20242.290700607904,
        "timestamp": "2025-12-10T14:53:37.337813+00:00",
        "meta_object_name": "GPS BIIR-4  (PRN 20)",
        "meta_object_id": "2000-025A",
        "meta_epoch": "2025-12-10T02:56:33.389088",
        "meta_mean_motion": 2.00567859,
        "meta_eccentricity": 0.00388536,
        "meta_inclination": 55.0436,
        "meta_ra_of_asc_node": 26.9437,
        "meta_arg_of_pericenter": 241.7395,
        "meta_mean_anomaly": 126.4699,
        "meta_ephemeris_type": 0,
        "meta_classification_type": "U",
        "meta_norad_cat_id": 26360,
        "meta_element_set_no": 999,
        "meta_rev_at_epoch": 18748,
        "meta_bstar": 0,
        "meta_mean_motion_dot": -9.6e-07,
        "meta_mean_motion_ddot": 0,
        "tle_line1": "1 26360U 00025A   25344.12260867 -.00000096  00000+0  00000+0 0  9998",
        "tle_line2": "2 26360  55.0436  26.9437 0038853 241.7395 126.4699  2.00567859187488"
      },
      "geometry": {
        "type": "Point",
        "coordinates": [
          31.5883282801012,
          6.614223000110622
        ]
      }
    },
    {
      "type": "Feature",
      "properties": {
        "norad_id": 26407,
        "name": "GPS BIIR-5  (PRN 22)",
        "group": "gnss",
        "lat": -20.93962882329485,
        "lon": 58.266532653064324,
        "alt_km": 20215.09063534608,
        "timestamp": "2025-12-10T14:53:37.337830+00:00",
        "meta_object_name": "GPS BIIR-5  (PRN 22)",
        "meta_object_id": "2000-040A",
        "meta_epoch": "2025-12-09T20:17:06.584640",
        "meta_mean_motion": 2.00567874,
        "meta_eccentricity": 0.01261721,
        "meta_inclination": 54.8914,
        "meta_ra_of_asc_node": 222.6841,
        "meta_arg_of_pericenter": 301.7549,
        "meta_mean_anomaly": 65.7518,
        "meta_ephemeris_type": 0,
        "meta_classification_type": "U",
        "meta_norad_cat_id": 26407,
        "meta_element_set_no": 999,
        "meta_rev_at_epoch": 18615,
        "meta_bstar": 0,
        "meta_mean_motion_dot": 2e-08,
        "meta_mean_motion_ddot": 0,
        "tle_line1": "1 26407U 00040A   25343.84521510  .00000002  00000+0  00000+0 0  9996",
        "tle_line2": "2 26407  54.8914 222.6841 0126172 301.7549  65.7518  2.00567874186157"
      },
      "geometry": {
        "type": "Point",
        "coordinates": [
          58.266532653064324,
          -20.93962882329485
        ]
      }
    },
    {
      "type": "Feature",
      "properties": {
        "norad_id": 27663,
        "name": "GPS BIIR-8  (PRN 16)",
        "group": "gnss",
        "lat": -14.995836193063353,
        "lon": -148.3701615789277,
        "alt_km": 20045.665685343934,
        "timestamp": "2025-12-10T14:53:37.337844+00:00",
        "meta_object_name": "GPS BIIR-8  (PRN 16)",
        "meta_object_id": "2003-005A",
        "meta_epoch": "2025-12-10T07:26:08.155104",
        "meta_mean_motion": 2.00571007,
        "meta_eccentricity": 0.01473611,
        "meta_inclination": 54.9239,
        "meta_ra_of_asc_node": 222.475,
        "meta_arg_of_pericenter": 51.7666,
        "meta_mean_anomaly": 67.0717,
        "meta_ephemeris_type": 0,
        "meta_classification_type": "U",
        "meta_norad_cat_id": 27663,
        "meta_element_set_no": 999,
        "meta_rev_at_epoch": 16752,
        "meta_bstar": 0,
        "meta_mean_motion_dot": 1e-08,
        "meta_mean_motion_ddot": 0,
        "tle_line1": "1 27663U 03005A   25344.30981661  .00000001  00000+0  00000+0 0  9993",
        "tle_line2": "2 27663  54.9239 222.4750 0147361  51.7666  67.0717  2.00571007167524"
      },
      "geometry": {
        "type": "Point",
        "coordinates": [
          -148.3701615789277,
          -14.995836193063353
        ]
      }
    },
    {
      "type": "Feature",
      "properties": {
        "norad_id": 28190,
        "name": "GPS BIIR-11 (PRN 19)",
        "group": "gnss",
        "lat": 30.632230683466002,
        "lon": 78.79561867196865,
        "alt_km": 19919.434344448357,
        "timestamp": "2025-12-10T14:53:37.337856+00:00",
        "meta_object_name": "GPS BIIR-11 (PRN 19)",
        "meta_object_id": "2004-009A",
        "meta_epoch": "2025-12-09T02:41:41.936352",
        "meta_mean_motion": 2.00560834,
        "meta_eccentricity": 0.01083049,
        "meta_inclination": 54.989,
        "meta_ra_of_asc_node": 283.3651,
        "meta_arg_of_pericenter": 167.5856,
        "meta_mean_anomaly": 325.415,
        "meta_ephemeris_type": 0,
        "meta_classification_type": "U",
        "meta_norad_cat_id": 28190,
        "meta_element_set_no": 999,
        "meta_rev_at_epoch": 15913,
        "meta_bstar": 0,
        "meta_mean_motion_dot": -5.3e-07,
        "meta_mean_motion_ddot": 0,
        "tle_line1": "1 28190U 04009A   25343.11229093 -.00000053  00000+0  00000+0 0  9994",
        "tle_line2": "2 28190  54.9890 283.3651 0108304 167.5856 325.4150  2.00560834159136"
      },
      "geometry": {
        "type": "Point",
        "coordinates": [
          78.79561867196865,
          30.632230683466002
        ]
      }
    },
    {
      "type": "Feature",
      "properties": {
        "norad_id": 28474,
        "name": "GPS BIIR-13 (PRN 02)",
        "group": "gnss",
        "lat": -16.534466694461216,
        "lon": 164.3759562830463,
        "alt_km": 20323.368544550198,
        "timestamp": "2025-12-10T14:53:37.337869+00:00",
        "meta_object_name": "GPS BIIR-13 (PRN 02)",
        "meta_object_id": "2004-045A",
        "meta_epoch": "2025-12-09T20:12:55.228896",
        "meta_mean_motion": 2.00569305,
        "meta_eccentricity": 0.01707094,
        "meta_inclination": 55.2421,
        "meta_ra_of_asc_node": 332.5223,
        "meta_arg_of_pericenter": 309.1205,
        "meta_mean_anomaly": 51.0041,
        "meta_ephemeris_type": 0,
        "meta_classification_type": "U",
        "meta_norad_cat_id": 28474,
        "meta_element_set_no": 999,
        "meta_rev_at_epoch": 15463,
        "meta_bstar": 0,
        "meta_mean_motion_dot": -8.4e-07,
        "meta_mean_motion_ddot": 0,
        "tle_line1": "1 28474U 04045A   25343.84230589 -.00000084  00000+0  00000+0 0  9995",
        "tle_line2": "2 28474  55.2421 332.5223 0170709 309.1205  51.0041  2.00569305154630"
      },
      "geometry": {
        "type": "Point",
        "coordinates": [
          164.3759562830463,
          -16.534466694461216
        ]
      }
    },
    {
      "type": "Feature",
      "properties": {
        "norad_id": 28874,
        "name": "GPS BIIRM-1 (PRN 17)",
        "group": "gnss",
        "lat": 16.409808881642387,
        "lon": 88.89399494287936,
        "alt_km": 20418.428691836703,
        "timestamp": "2025-12-10T14:53:37.337882+00:00",
        "meta_object_name": "GPS BIIRM-1 (PRN 17)",
        "meta_object_id": "2005-038A",
        "meta_epoch": "2025-12-09T01:52:55.801632",
        "meta_mean_motion": 2.0057855,
        "meta_eccentricity": 0.01317498,
        "meta_inclination": 55.0352,
        "meta_ra_of_asc_node": 280.8483,
        "meta_arg_of_pericenter": 293.4065,
        "meta_mean_anomaly": 193.8993,
        "meta_ephemeris_type": 0,
        "meta_classification_type": "U",
        "meta_norad_cat_id": 28874,
        "meta_element_set_no": 999,
        "meta_rev_at_epoch": 14802,
        "meta_bstar": 0,
        "meta_mean_motion_dot": -5e-07,
        "meta_mean_motion_ddot": 0,
        "tle_line1": "1 28874U 05038A   25343.07842363 -.00000050  00000+0  00000+0 0  9999",
        "tle_line2": "2 28874  55.0352 280.8483 0131749 293.4065 193.8993  2.00578550148027"
      },
      "geometry": {
        "type": "Point",
        "coordinates": [
          88.89399494287936,
          16.409808881642387
        ]
      }
    }
  ]
}